ONEWEB-0201             
1 48241U 21031AH  21272.80410643 -.00000142  00000-0 -41677-3 0  9993
2 48241  87.8987 271.8600 0001902  88.6037 271.5311 13.14499168 22231
ONEWEB-0207             
1 48242U 21031AJ  21272.39815967  .00000001  00000-0 -32374-4 0  9994
2 48242  87.9005 271.9431 0002130  79.0198 281.1171 13.14500181 22096
ONEWEB-0208             
1 48243U 21031AK  21272.45100038  .00000294  00000-0  75723-3 0  9995
2 48243  87.8973 271.9248 0002254 106.1218 254.0160 13.14500842 22112
ONEWEB-0200             
1 48244U 21031AL  21272.41508877  .00002426  00000-0  65075-2 0  9992
2 48244  87.8965 271.9120 0002318 106.7781 253.3603 13.14494438 22033
ONEWEB-0217             
1 48245U 21031AM  21272.43198931  .00001527  00000-0  40844-2 0  9999
2 48245  87.9007 271.9271 0002323 106.8941 253.2444 13.14497913 21980
ONEWEB-0211             
1 48767U 21045A   21272.91668981  .00004673  00000-0  12369-1 0  9998
2 48767  87.9096 241.3924 0001740  95.9685 252.7761 13.15572488 19231
ONEWEB-0223             
1 48768U 21045B   21272.91668981  .00000013  00000-0  00000+0 0  9990
2 48768  87.9499 241.4030 0002253 108.6277  11.1028 13.26933485 19229
ONEWEB-0230             
1 48769U 21045C   21272.91668981 -.00054100  00000-0 -11743+0 0  9995
2 48769  87.9615 241.3528 0005111 178.1945 191.8279 13.29546925 19441
ONEWEB-0237             
1 48770U 21045D   21272.91668981 -.00265717  00000-0 -59108+0 0  9992
2 48770  87.9546 241.0595 0001427 108.1545 167.6436 13.29478652 19191
ONEWEB-0235             
1 48771U 21045E   21272.91668981  .00004564  00000-0  98073-2 0  9999
2 48771  87.9295 241.2313 0001537 135.1140 225.5448 13.29578525 19171
ONEWEB-0242             
1 48772U 21045F   21272.91668981  .00000013  00000-0  00000+0 0  9995
2 48772  87.9070 241.4122 0000768 106.2897 125.2909 13.16057538 19233
ONEWEB-0241             
1 48773U 21045G   21272.91668981  .00004297  00000-0  11517-1 0  9991
2 48773  87.9107 241.4352 0001812 105.8750 205.2126 13.14705868 19148
ONEWEB-0243             
1 48774U 21045H   21272.91668981  .00000013  00000-0  00000+0 0  9997
2 48774  87.9540 241.2608 0001540 105.9425 246.1352 13.28271174 19171
ONEWEB-0222             
1 48775U 21045J   21272.91668981  .00000013  00000-0  00000+0 0  9998
2 48775  87.9373 241.3298 0001642  91.3470  11.7068 13.23412072 19206
ONEWEB-0244             
1 48776U 21045K   21272.91668981 -.00384959  00000-0 -28217+0 0  9995
2 48776  88.2163 240.6302 0005207 186.6122 189.0093 13.98256674 19561
ONEWEB-0247             
1 48777U 21045L   21272.42901493  .00000011  00000-0 -38529-5 0  9996
2 48777  87.9713 241.4932 0001454 108.8052 251.3244 13.29575272 18028
ONEWEB-0245             
1 48778U 21045M   21272.91668981  .00000013  00000-0  00000+0 0  9991
2 48778  87.9793 241.2248 0001598 106.3554 157.4591 13.27076337 19190
ONEWEB-0229             
1 48779U 21045N   21272.91668981  .00000013  00000-0  00000+0 0  9992
2 48779  87.9441 241.0767 0001571  94.8357  19.0250 13.30182239 19219
ONEWEB-0228             
1 48780U 21045P   21272.91668981 -.00050655  00000-0 -11793+0 0  9994
2 48780  87.9425 241.3204 0001890 102.6328 228.3845 13.24856770 19139
ONEWEB-0232             
1 48781U 21045Q   21272.91668981  .00005216  00000-0  12004-1 0  9994
2 48781  87.9431 241.4361 0001565  94.7778  64.8841 13.25034254 19451
ONEWEB-0231             
1 48782U 21045R   21272.91668981  .00000013  00000-0  00000+0 0  9996
2 48782  87.9315 241.3715 0001514 112.6098  51.1266 13.22827381 19160
ONEWEB-0234             
1 48783U 21045S   21272.91668981  .00005576  00000-0  13445-1 0  9995
2 48783  87.9273 241.3775 0001297 107.0965 302.3670 13.21913802 19296
ONEWEB-0238             
1 48784U 21045T   21272.91668981  .00000013  00000-0  00000+0 0  9998
2 48784  87.9322 241.3404 0001567 162.3703 130.5074 13.23268792 19185
ONEWEB-0240             
1 48785U 21045U   21272.58334491 -.00042770  00000-0 -11419+0 0  9992
2 48785  87.9092 241.4181 0001987 113.2833  47.5113 13.15539557  3318
ONEWEB-0246             
1 48786U 21045V   21272.91668981  .00000013  00000-0  00000+0 0  9990
2 48786  87.9395 241.4337 0001677  93.9538 123.3719 13.24837488 19079
ONEWEB-0210             
1 48787U 21045W   21272.91668981  .00004451  00000-0  11203-1 0  9990
2 48787  87.9204 241.4638 0001544  99.4090 107.3539 13.18986430 19123
ONEWEB-0214             
1 48788U 21045X   21272.91668981  .00003948  00000-0  92686-2 0  9996
2 48788  87.9422 241.4253 0001523 119.3635 119.9839 13.23647935 19080
ONEWEB-0221             
1 48789U 21045Y   21272.91668981  .00005406  00000-0  14478-1 0  9990
2 48789  87.9078 241.4232 0001576  98.8695 298.6710 13.14782991 19209
ONEWEB-0213             
1 48790U 21045Z   21272.91668981  .00005375  00000-0  11738-1 0  9993
2 48790  87.9579 241.2857 0002019 111.7375  28.7474 13.28529001 19251
ONEWEB-0212             
1 48791U 21045AA  21272.91668981  .00000013  00000-0  00000+0 0  9996
2 48791  87.9276 241.3143 0001834  87.5049  48.1328 13.20523664 19252
ONEWEB-0227             
1 48792U 21045AB  21272.91668981  .00004567  00000-0  99621-2 0  9995
2 48792  87.9589 241.1111 0001763 100.2314 271.1817 13.28578698 19191
ONEWEB-0226             
1 48793U 21045AC  21272.91668981  .00000013  00000-0  00000+0 0  9998
2 48793  87.9404 241.2704 0001602  80.6577  20.2137 13.24564753 19158
ONEWEB-0224             
1 48794U 21045AD  21272.91668981  .00005183  00000-0  13860-1 0  9992
2 48794  87.9096 241.4366 0001901 117.4015 261.6279 13.14885928 19089
ONEWEB-0233             
1 48795U 21045AE  21272.91668981  .00003724  00000-0  98389-2 0  9992
2 48795  87.9055 241.2733 0001734 104.4365 169.4750 13.15661515 19083
ONEWEB-0190             
1 48796U 21045AF  21272.91668981  .00004940  00000-0  11241-1 0  9995
2 48796  87.9475 241.2480 0001276 109.7177 269.8736 13.25783092 19163
ONEWEB-0236             
1 48797U 21045AG  21272.91668981  .00004515  00000-0  11927-1 0  9995
2 48797  87.9097 241.4325 0002021 101.7496 229.7783 13.15693010 19053
ONEWEB-0248             
1 48798U 21045AH  21272.91668981  .00000013  00000-0  00000+0 0  9993
2 48798  87.9331 241.4137 0001396 143.5581  26.0004 13.22746615 19220
ONEWEB-0225             
1 48799U 21045AJ  21272.91668981  .00003828  00000-0  91469-2 0  9993
2 48799  87.9302 241.3691 0001331 114.8838 171.3478 13.22456874 19233
ONEWEB-0215             
1 48800U 21045AK  21272.91668981  .00000013  00000-0  00000+0 0  9997
2 48800  87.9373 241.4341 0001199 159.2551  35.7585 13.23938879 19091
ONEWEB-0216             
1 48801U 21045AL  21272.91668981  .00000013  00000-0  00000+0 0  9998
2 48801  87.9380 241.3324 0001646  92.6585  36.7831 13.25066321 19107
ONEWEB-0239             
1 48802U 21045AM  21272.91668981  .00000013  00000-0  00000+0 0  9999
2 48802  87.9528 241.3707 0001658 120.8462 327.4612 13.28162501 19161
ONEWEB-0249             
1 48967U 21060A   21272.91668981  .00000013  00000-0  00000+0 0  9998
2 48967  87.9510 211.1223 0008214   0.4369 157.1749 13.33289951 14389
ONEWEB-0250             
1 48968U 21060B   21272.91668981  .00000013  00000-0  00000+0 0  9999
2 48968  87.9632 211.1441 0006866 334.5058 101.4191 13.32727712 14377
ONEWEB-0251             
1 48969U 21060C   21272.58334491  .00010961  00000-0  34188-3 0  9990
2 48969  87.4239 205.7919 0007887 318.3972 110.6242 15.33068177  3636
ONEWEB-0252             
1 48970U 21060D   21272.91668981  .00000013  00000-0  00000+0 0  9992
2 48970  87.9472 211.1671 0010266 339.9159 331.9109 13.35671297 14421
ONEWEB-0253             
1 48971U 21060E   21272.91668981  .00000013  00000-0  00000+0 0  9993
2 48971  87.9673 211.2205 0006632 333.6686 313.0034 13.30703928 14359
ONEWEB-0254             
1 48972U 21060F   21272.91668981  .00000013  00000-0  00000+0 0  9994
2 48972  87.9592 211.1304 0010087 339.3173 315.9553 13.32646511 14366
ONEWEB-0255             
1 48973U 21060G   21272.91668981  .00000013  00000-0  00000+0 0  9995
2 48973  87.9479 211.1509 0005844 344.4425 203.5776 13.35448015 14439
ONEWEB-0256             
1 48974U 21060H   21272.91668981  .00000013  00000-0  00000+0 0  9996
2 48974  87.9502 211.1595 0012134 338.9635  79.3710 13.34343263 14405
ONEWEB-0257             
1 48975U 21060J   21272.91668981 -.00033113  00000-0 -71254-1 0  9997
2 48975  87.9683 211.1871 0006859 333.7456  46.3691 13.29973041 14368
ONEWEB-0258             
1 48976U 21060K   21272.91668981  .00000013  00000-0  00000+0 0  9998
2 48976  87.9642 211.1539 0007129 343.0562 271.7564 13.32560758 14351
ONEWEB-0259             
1 48977U 21060L   21272.91668981  .00000013  00000-0  00000+0 0  9999
2 48977  87.9535 211.1437 0010936 344.3243 291.6226 13.33364864 14391
ONEWEB-0260             
1 48978U 21060M   21272.91668981  .00000013  00000-0  00000+0 0  9990
2 48978  87.9491 211.1630 0006425 320.7752 339.3239 13.34853951 14372
ONEWEB-0261             
1 48979U 21060N   21272.91668981  .00000013  00000-0  00000+0 0  9991
2 48979  87.9444 211.1567 0011473 337.6807 116.0994 13.36679637 14442
ONEWEB-0262             
1 48980U 21060P   21272.91668981  .00000013  00000-0  00000+0 0  9993
2 48980  87.9386 211.0929 0009662 342.8917 145.4340 13.37435598 14401
ONEWEB-0263             
1 48981U 21060Q   21272.91668981  .00000013  00000-0  00000+0 0  9994
2 48981  87.9502 211.0728 0008780 332.0053  76.2217 13.34199660 14375
ONEWEB-0264             
1 48982U 21060R   21272.91668981  .00000014  00000-0  00000+0 0  9996
2 48982  87.9210 210.9989 0010603 355.2525 169.3214 13.40663682 14364
ONEWEB-0265             
1 48983U 21060S   21272.58334491  .00010297  00000-0  24423-3 0  9999
2 48983  87.4028 205.3265 0004170 315.6394 312.9336 15.41568904  3631
ONEWEB-0266             
1 48984U 21060T   21272.91668981  .00000013  00000-0  00000+0 0  9997
2 48984  87.9357 211.1104 0012128 344.9076 139.0368 13.35692052 14361
